{"type": "FeatureCollection", "features": [ {"type": "Feature", "properties": {"norad_id": 34375, "name": "IRIDIUM 33 DEB", "group": "iridium-33-debris", "lat": 82.56267274079637, "lon": -152.14388875436384, "alt_km": 753.0871648842603, "timestamp": "2025-12-21T03:56:51.218154+00:00", "meta": {"OBJECT_NAME": "IRIDIUM 33 DEB", "OBJECT_ID": "1997-051FT", "EPOCH": "2025-12-20T12:24:40.051872", "MEAN_MOTION": 14.18005586, "ECCENTRICITY": 0.01036912, "INCLINATION": 86.4321, "RA_OF_ASC_NODE": 179.5653, "ARG_OF_PERICENTER": 102.408, "MEAN_ANOMALY": 278.8624, "EPHEMERIS_TYPE": 0, "CLASSIFICATION_TYPE": "U", "NORAD_CAT_ID": 34375, "ELEMENT_SET_NO": 999, "REV_AT_EPOCH": 86822, "BSTAR": 0.00031260448, "MEAN_MOTION_DOT": 6.95e-06, "MEAN_MOTION_DDOT": 0}, "tle": {"line1": "1 34375U 97051FT  25354.51713023  .00000695  00000+0  31260-3 0  9999", "line2": "2 34375  86.4321 179.5653 0103691 102.4080 278.8624 14.18005586868220"}}, "geometry": {"type": "Point", "coordinates": [-152.14388875436384, 82.56267274079637]}}, {"type": "Feature", "properties": {"norad_id": 34376, "name": "IRIDIUM 33 DEB", "group": "iridium-33-debris", "lat": 7.302954427403069, "lon": 3.227497216092718, "alt_km": 699.7427781543793, "timestamp": "2025-12-21T03:56:51.218163+00:00", "meta": {"OBJECT_NAME": "IRIDIUM 33 DEB", "OBJECT_ID": "1997-051FU", "EPOCH": "2025-12-20T18:03:45.455616", "MEAN_MOTION": 14.62666051, "ECCENTRICITY": 0.0028084, "INCLINATION": 86.2976, "RA_OF_ASC_NODE": 2.9372, "ARG_OF_PERICENTER": 140.2366, "MEAN_ANOMALY": 220.0911, "EPHEMERIS_TYPE": 0, "CLASSIFICATION_TYPE": "U", "NORAD_CAT_ID": 34376, "ELEMENT_SET_NO": 999, "REV_AT_EPOCH": 88124, "BSTAR": 0.00085932, "MEAN_MOTION_DOT": 4.418e-05, "MEAN_MOTION_DDOT": 0}, "tle": {"line1": "1 34376U 97051FU  25354.75260944  .00004418  00000+0  85932-3 0  9997", "line2": "2 34376  86.2976   2.9372 0028084 140.2366 220.0911 14.62666051881245"}}, "geometry": {"type": "Point", "coordinates": [3.227497216092718, 7.302954427403069]}}, {"type": "Feature", "properties": {"norad_id": 34486, "name": "IRIDIUM 33 DEB", "group": "iridium-33-debris", "lat": 25.13074470954829, "lon": -173.56037954750371, "alt_km": 574.4980551926665, "timestamp": "2025-12-21T03:56:51.218172+00:00", "meta": {"OBJECT_NAME": "IRIDIUM 33 DEB", "OBJECT_ID": "1997-051GB", "EPOCH": "2025-12-20T00:04:17.796000", "MEAN_MOTION": 14.96101928, "ECCENTRICITY": 0.0013908, "INCLINATION": 86.3929, "RA_OF_ASC_NODE": 8.6716, "ARG_OF_PERICENTER": 91.5412, "MEAN_ANOMALY": 291.3403, "EPHEMERIS_TYPE": 0, "CLASSIFICATION_TYPE": "U", "NORAD_CAT_ID": 34486, "ELEMENT_SET_NO": 999, "REV_AT_EPOCH": 89095, "BSTAR": 0.0013547, "MEAN_MOTION_DOT": 0.00015301, "MEAN_MOTION_DDOT": 0}, "tle": {"line1": "1 34486U 97051GB  25354.00298375  .00015301  00000+0  13547-2 0  9991", "line2": "2 34486  86.3929   8.6716 0013908  91.5412 291.3403 14.96101928890959"}}, "geometry": {"type": "Point", "coordinates": [-173.56037954750371, 25.13074470954829]}}, {"type": "Feature", "properties": {"norad_id": 34487, "name": "IRIDIUM 33 DEB", "group": "iridium-33-debris", "lat": 11.450390304623154, "lon": 9.492152785729154, "alt_km": 749.4236845463074, "timestamp": "2025-12-21T03:56:51.218181+00:00", "meta": {"OBJECT_NAME": "IRIDIUM 33 DEB", "OBJECT_ID": "1997-051GC", "EPOCH": "2025-12-20T11:57:25.083072", "MEAN_MOTION": 14.43225278, "ECCENTRICITY": 0.0033198, "INCLINATION": 86.343, "RA_OF_ASC_NODE": 9.0367, "ARG_OF_PERICENTER": 104.2431, "MEAN_ANOMALY": 48.2266, "EPHEMERIS_TYPE": 0, "CLASSIFICATION_TYPE": "U", "NORAD_CAT_ID": 34487, "ELEMENT_SET_NO": 999, "REV_AT_EPOCH": 88360, "BSTAR": 0.00013260723, "MEAN_MOTION_DOT": 4.69e-06, "MEAN_MOTION_DDOT": 0}, "tle": {"line1": "1 34487U 97051GC  25354.49820698  .00000469  00000+0  13261-3 0  9997", "line2": "2 34487  86.3430   9.0367 0033198 104.2431  48.2266 14.43225278883607"}}, "geometry": {"type": "Point", "coordinates": [9.492152785729154, 11.450390304623154]}}, {"type": "Feature", "properties": {"norad_id": 34488, "name": "IRIDIUM 33 DEB", "group": "iridium-33-debris", "lat": 77.60653274705814, "lon": 104.62385230756408, "alt_km": 461.65906361431644, "timestamp": "2025-12-21T03:56:51.218191+00:00", "meta": {"OBJECT_NAME": "IRIDIUM 33 DEB", "OBJECT_ID": "1997-051GD", "EPOCH": "2025-12-20T00:50:30.763392", "MEAN_MOTION": 15.31136537, "ECCENTRICITY": 0.00111988, "INCLINATION": 86.3246, "RA_OF_ASC_NODE": 302.194, "ARG_OF_PERICENTER": 39.0214, "MEAN_ANOMALY": 321.1841, "EPHEMERIS_TYPE": 0, "CLASSIFICATION_TYPE": "U", "NORAD_CAT_ID": 34488, "ELEMENT_SET_NO": 999, "REV_AT_EPOCH": 89351, "BSTAR": 0.0029700032, "MEAN_MOTION_DOT": 0.00090383, "MEAN_MOTION_DDOT": 0}, "tle": {"line1": "1 34488U 97051GD  25354.03507828  .00090383  00000+0  29700-2 0  9993", "line2": "2 34488  86.3246 302.1940 0011198  39.0214 321.1841 15.31136537893517"}}, "geometry": {"type": "Point", "coordinates": [104.62385230756408, 77.60653274705814]}}, {"type": "Feature", "properties": {"norad_id": 34492, "name": "IRIDIUM 33 DEB", "group": "iridium-33-debris", "lat": -63.305537600338745, "lon": -35.827338577189494, "alt_km": 800.1174728575752, "timestamp": "2025-12-21T03:56:51.218200+00:00", "meta": {"OBJECT_NAME": "IRIDIUM 33 DEB", "OBJECT_ID": "1997-051GH", "EPOCH": "2025-12-19T10:45:18.347328", "MEAN_MOTION": 14.25846982, "ECCENTRICITY": 0.0188646, "INCLINATION": 86.4707, "RA_OF_ASC_NODE": 331.9164, "ARG_OF_PERICENTER": 216.3823, "MEAN_ANOMALY": 273.3437, "EPHEMERIS_TYPE": 0, "CLASSIFICATION_TYPE": "U", "NORAD_CAT_ID": 34492, "ELEMENT_SET_NO": 999, "REV_AT_EPOCH": 85154, "BSTAR": 0.0022012, "MEAN_MOTION_DOT": 6.332e-05, "MEAN_MOTION_DDOT": 0}, "tle": {"line1": "1 34492U 97051GH  25353.44812902  .00006332  00000+0  22012-2 0  9994", "line2": "2 34492  86.4707 331.9164 0188646 216.3823 273.3437 14.25846982851542"}}, "geometry": {"type": "Point", "coordinates": [-35.827338577189494, -63.305537600338745]}}, {"type": "Feature", "properties": {"norad_id": 34497, "name": "IRIDIUM 33 DEB", "group": "iridium-33-debris", "lat": -42.04922457035758, "lon": -127.83091664563774, "alt_km": 806.4225458979108, "timestamp": "2025-12-21T03:56:51.218209+00:00", "meta": {"OBJECT_NAME": "IRIDIUM 33 DEB", "OBJECT_ID": "1997-051GN", "EPOCH": "2025-12-19T10:35:53.025216", "MEAN_MOTION": 14.2747197, "ECCENTRICITY": 0.0078309, "INCLINATION": 86.2774, "RA_OF_ASC_NODE": 49.5385, "ARG_OF_PERICENTER": 317.619, "MEAN_ANOMALY": 57.0969, "EPHEMERIS_TYPE": 0, "CLASSIFICATION_TYPE": "U", "NORAD_CAT_ID": 34497, "ELEMENT_SET_NO": 999, "REV_AT_EPOCH": 86979, "BSTAR": 0.00044435, "MEAN_MOTION_DOT": 1.145e-05, "MEAN_MOTION_DDOT": 0}, "tle": {"line1": "1 34497U 97051GN  25353.44158594  .00001145  00000+0  44435-3 0  9990", "line2": "2 34497  86.2774  49.5385 0078309 317.6190  57.0969 14.27471970869798"}}, "geometry": {"type": "Point", "coordinates": [-127.83091664563774, -42.04922457035758]}}, {"type": "Feature", "properties": {"norad_id": 34508, "name": "IRIDIUM 33 DEB", "group": "iridium-33-debris", "lat": -6.529633511204356, "lon": 98.65571202719784, "alt_km": 809.434988569541, "timestamp": "2025-12-21T03:56:51.218218+00:00", "meta": {"OBJECT_NAME": "IRIDIUM 33 DEB", "OBJECT_ID": "1997-051GZ", "EPOCH": "2025-12-20T17:57:40.604832", "MEAN_MOTION": 14.38482404, "ECCENTRICITY": 0.0066615, "INCLINATION": 86.371, "RA_OF_ASC_NODE": 99.2483, "ARG_OF_PERICENTER": 147.2319, "MEAN_ANOMALY": 213.3038, "EPHEMERIS_TYPE": 0, "CLASSIFICATION_TYPE": "U", "NORAD_CAT_ID": 34508, "ELEMENT_SET_NO": 999, "REV_AT_EPOCH": 87424, "BSTAR": 0.00079549, "MEAN_MOTION_DOT": 2.512e-05, "MEAN_MOTION_DDOT": 0}, "tle": {"line1": "1 34508U 97051GZ  25354.74838663  .00002512  00000+0  79549-3 0  9992", "line2": "2 34508  86.3710  99.2483 0066615 147.2319 213.3038 14.38482404874246"}}, "geometry": {"type": "Point", "coordinates": [98.65571202719784, -6.529633511204356]}}, {"type": "Feature", "properties": {"norad_id": 34521, "name": "IRIDIUM 33 DEB", "group": "iridium-33-debris", "lat": -27.111551573481464, "lon": -151.30321628518521, "alt_km": 686.4105009849163, "timestamp": "2025-12-21T03:56:51.218228+00:00", "meta": {"OBJECT_NAME": "IRIDIUM 33 DEB", "OBJECT_ID": "1997-051HN", "EPOCH": "2025-12-20T13:52:33.220128", "MEAN_MOTION": 14.63425265, "ECCENTRICITY": 0.0002518, "INCLINATION": 86.3788, "RA_OF_ASC_NODE": 27.0969, "ARG_OF_PERICENTER": 181.0734, "MEAN_ANOMALY": 179.0473, "EPHEMERIS_TYPE": 0, "CLASSIFICATION_TYPE": "U", "NORAD_CAT_ID": 34521, "ELEMENT_SET_NO": 999, "REV_AT_EPOCH": 88587, "BSTAR": 0.00052049, "MEAN_MOTION_DOT": 2.713e-05, "MEAN_MOTION_DDOT": 0}, "tle": {"line1": "1 34521U 97051HN  25354.57816227  .00002713  00000+0  52049-3 0  9999", "line2": "2 34521  86.3788  27.0969 0002518 181.0734 179.0473 14.63425265885875"}}, "geometry": {"type": "Point", "coordinates": [-151.30321628518521, -27.111551573481464]}}, {"type": "Feature", "properties": {"norad_id": 34525, "name": "IRIDIUM 33 DEB", "group": "iridium-33-debris", "lat": 54.05309923056128, "lon": -141.77172906364248, "alt_km": 740.9259066192226, "timestamp": "2025-12-21T03:56:51.218237+00:00", "meta": {"OBJECT_NAME": "IRIDIUM 33 DEB", "OBJECT_ID": "1997-051HS", "EPOCH": "2025-12-20T04:21:41.244768", "MEAN_MOTION": 14.42921764, "ECCENTRICITY": 0.00064705, "INCLINATION": 86.3721, "RA_OF_ASC_NODE": 43.6672, "ARG_OF_PERICENTER": 78.1419, "MEAN_ANOMALY": 345.8375, "EPHEMERIS_TYPE": 0, "CLASSIFICATION_TYPE": "U", "NORAD_CAT_ID": 34525, "ELEMENT_SET_NO": 999, "REV_AT_EPOCH": 88195, "BSTAR": 0.00024009823, "MEAN_MOTION_DOT": 8.22e-06, "MEAN_MOTION_DDOT": 0}, "tle": {"line1": "1 34525U 97051HS  25354.18172737  .00000822  00000+0  24010-3 0  9997", "line2": "2 34525  86.3721  43.6672 0006470  78.1419 345.8375 14.42921764881959"}}, "geometry": {"type": "Point", "coordinates": [-141.77172906364248, 54.05309923056128]}}]}